[{"OBJECT_NAME":"STARLINK-11248 [DTC]","OBJECT_ID":"2024-154M","EPOCH":"2025-09-04T12:04:49.481472","MEAN_MOTION":15.69722187,"ECCENTRICITY":0.00010179,"INCLINATION":53.1585,"RA_OF_ASC_NODE":328.9516,"ARG_OF_PERICENTER":85.3955,"MEAN_ANOMALY":274.7179,"EPHEMERIS_TYPE":0,"CLASSIFICATION_TYPE":"U","NORAD_CAT_ID":60914,"ELEMENT_SET_NO":999,"REV_AT_EPOCH":5926,"BSTAR":-2.1763352e-5,"MEAN_MOTION_DOT":-3.225e-5,"MEAN_MOTION_DDOT":0},{"OBJECT_NAME":"STARLINK-11271 [DTC]","OBJECT_ID":"2024-154N","EPOCH":"2025-09-04T11:57:44.899776","MEAN_MOTION":15.69718509,"ECCENTRICITY":0.00011928,"INCLINATION":53.1589,"RA_OF_ASC_NODE":328.9181,"ARG_OF_PERICENTER":96.5764,"MEAN_ANOMALY":263.5389,"EPHEMERIS_TYPE":0,"CLASSIFICATION_TYPE":"U","NORAD_CAT_ID":60915,"ELEMENT_SET_NO":999,"REV_AT_EPOCH":5926,"BSTAR":6.056684e-6,"MEAN_MOTION_DOT":1.45e-6,"MEAN_MOTION_DDOT":0},{"OBJECT_NAME":"STARLINK-32371","OBJECT_ID":"2024-154P","EPOCH":"2025-09-04T17:31:29.231616","MEAN_MOTION":15.30203039,"ECCENTRICITY":0.00011426,"INCLINATION":53.1619,"RA_OF_ASC_NODE":67.6118,"ARG_OF_PERICENTER":109.1073,"MEAN_ANOMALY":251.0052,"EPHEMERIS_TYPE":0,"CLASSIFICATION_TYPE":"U","NORAD_CAT_ID":60916,"ELEMENT_SET_NO":999,"REV_AT_EPOCH":5786,"BSTAR":3.1190069e-5,"MEAN_MOTION_DOT":5.65e-6,"MEAN_MOTION_DDOT":0},{"OBJECT_NAME":"STARLINK-32369","OBJECT_ID":"2024-154Q","EPOCH":"2025-09-04T18:38:11.993280","MEAN_MOTION":15.3018404,"ECCENTRICITY":0.00021097,"INCLINATION":53.1612,"RA_OF_ASC_NODE":67.1946,"ARG_OF_PERICENTER":131.6428,"MEAN_ANOMALY":228.4754,"EPHEMERIS_TYPE":0,"CLASSIFICATION_TYPE":"U","NORAD_CAT_ID":60917,"ELEMENT_SET_NO":999,"REV_AT_EPOCH":5787,"BSTAR":8.769303e-5,"MEAN_MOTION_DOT":2.237e-5,"MEAN_MOTION_DDOT":0},{"OBJECT_NAME":"STARLINK-32317","OBJECT_ID":"2024-154R","EPOCH":"2025-09-04T19:42:01.207584","MEAN_MOTION":15.30164883,"ECCENTRICITY":0.00019143,"INCLINATION":53.1614,"RA_OF_ASC_NODE":67.4671,"ARG_OF_PERICENTER":140.2018,"MEAN_ANOMALY":219.9124,"EPHEMERIS_TYPE":0,"CLASSIFICATION_TYPE":"U","NORAD_CAT_ID":60918,"ELEMENT_SET_NO":999,"REV_AT_EPOCH":5787,"BSTAR":0.00019260032,"MEAN_MOTION_DOT":5.343e-5,"MEAN_MOTION_DDOT":0},{"OBJECT_NAME":"STARLINK-32367","OBJECT_ID":"2024-154S","EPOCH":"2025-09-04T18:21:28.868544","MEAN_MOTION":15.30193609,"ECCENTRICITY":0.00011414,"INCLINATION":53.1611,"RA_OF_ASC_NODE":67.1172,"ARG_OF_PERICENTER":104.7691,"MEAN_ANOMALY":255.3436,"EPHEMERIS_TYPE":0,"CLASSIFICATION_TYPE":"U","NORAD_CAT_ID":60919,"ELEMENT_SET_NO":999,"REV_AT_EPOCH":5787,"BSTAR":-3.6553185e-5,"MEAN_MOTION_DOT":-1.441e-5,"MEAN_MOTION_DDOT":0},{"OBJECT_NAME":"STARLINK-32345","OBJECT_ID":"2024-154T","EPOCH":"2025-09-04T19:43:30.668736","MEAN_MOTION":15.30207023,"ECCENTRICITY":0.00012102,"INCLINATION":53.1601,"RA_OF_ASC_NODE":67.4729,"ARG_OF_PERICENTER":95.662,"MEAN_ANOMALY":264.4519,"EPHEMERIS_TYPE":0,"CLASSIFICATION_TYPE":"U","NORAD_CAT_ID":60920,"ELEMENT_SET_NO":999,"REV_AT_EPOCH":5788,"BSTAR":7.8525503e-5,"MEAN_MOTION_DOT":1.968e-5,"MEAN_MOTION_DDOT":0},{"OBJECT_NAME":"STARLINK-32356","OBJECT_ID":"2024-154U","EPOCH":"2025-09-04T18:51:52.655040","MEAN_MOTION":15.3019171,"ECCENTRICITY":0.00010982,"INCLINATION":53.1614,"RA_OF_ASC_NODE":67.2471,"ARG_OF_PERICENTER":85.015,"MEAN_ANOMALY":275.0976,"EPHEMERIS_TYPE":0,"CLASSIFICATION_TYPE":"U","NORAD_CAT_ID":60921,"ELEMENT_SET_NO":999,"REV_AT_EPOCH":5788,"BSTAR":1.0673078e-5,"MEAN_MOTION_DOT":-4.3e-7,"MEAN_MOTION_DDOT":0},{"OBJECT_NAME":"STARLINK-32274","OBJECT_ID":"2024-154V","EPOCH":"2025-09-04T19:16:11.495712","MEAN_MOTION":15.30205449,"ECCENTRICITY":8.139e-5,"INCLINATION":53.1594,"RA_OF_ASC_NODE":67.3509,"ARG_OF_PERICENTER":18.2399,"MEAN_ANOMALY":341.8631,"EPHEMERIS_TYPE":0,"CLASSIFICATION_TYPE":"U","NORAD_CAT_ID":60922,"ELEMENT_SET_NO":999,"REV_AT_EPOCH":5788,"BSTAR":-4.6404025e-5,"MEAN_MOTION_DOT":-1.733e-5,"MEAN_MOTION_DDOT":0},{"OBJECT_NAME":"STARLINK-32373","OBJECT_ID":"2024-154W","EPOCH":"2025-09-04T19:29:51.577728","MEAN_MOTION":15.30196776,"ECCENTRICITY":0.00013716,"INCLINATION":53.161,"RA_OF_ASC_NODE":67.4099,"ARG_OF_PERICENTER":133.0402,"MEAN_ANOMALY":227.0714,"EPHEMERIS_TYPE":0,"CLASSIFICATION_TYPE":"U","NORAD_CAT_ID":60923,"ELEMENT_SET_NO":999,"REV_AT_EPOCH":5788,"BSTAR":-1.263315e-5,"MEAN_MOTION_DOT":-7.33e-6,"MEAN_MOTION_DDOT":0},{"OBJECT_NAME":"STARLINK-11239 [DTC]","OBJECT_ID":"2024-155A","EPOCH":"2025-09-04T02:44:15.279936","MEAN_MOTION":15.69693972,"ECCENTRICITY":0.00012718,"INCLINATION":53.1593,"RA_OF_ASC_NODE":181.3683,"ARG_OF_PERICENTER":111.0944,"MEAN_ANOMALY":249.021,"EPHEMERIS_TYPE":0,"CLASSIFICATION_TYPE":"U","NORAD_CAT_ID":60924,"ELEMENT_SET_NO":999,"REV_AT_EPOCH":5909,"BSTAR":-2.3324304e-5,"MEAN_MOTION_DOT":-3.411e-5,"MEAN_MOTION_DDOT":0},{"OBJECT_NAME":"STARLINK-11245 [DTC]","OBJECT_ID":"2024-155B","EPOCH":"2025-09-04T13:04:49.764288","MEAN_MOTION":15.69719915,"ECCENTRICITY":0.00010719,"INCLINATION":53.1595,"RA_OF_ASC_NODE":179.0734,"ARG_OF_PERICENTER":90.9596,"MEAN_ANOMALY":269.1545,"EPHEMERIS_TYPE":0,"CLASSIFICATION_TYPE":"U","NORAD_CAT_ID":60925,"ELEMENT_SET_NO":999,"REV_AT_EPOCH":5916,"BSTAR":-3.405411e-6,"MEAN_MOTION_DOT":-1.001e-5,"MEAN_MOTION_DDOT":0},{"OBJECT_NAME":"STARLINK-11244 [DTC]","OBJECT_ID":"2024-155C","EPOCH":"2025-09-04T12:50:41.419104","MEAN_MOTION":15.6971653,"ECCENTRICITY":0.00010507,"INCLINATION":53.1601,"RA_OF_ASC_NODE":179.0067,"ARG_OF_PERICENTER":90.7853,"MEAN_ANOMALY":269.3285,"EPHEMERIS_TYPE":0,"CLASSIFICATION_TYPE":"U","NORAD_CAT_ID":60926,"ELEMENT_SET_NO":999,"REV_AT_EPOCH":5921,"BSTAR":1.86823e-6,"MEAN_MOTION_DOT":-3.62e-6,"MEAN_MOTION_DDOT":0},{"OBJECT_NAME":"STARLINK-11243 [DTC]","OBJECT_ID":"2024-155D","EPOCH":"2025-09-04T12:57:46.490688","MEAN_MOTION":15.69706849,"ECCENTRICITY":0.00013361,"INCLINATION":53.1605,"RA_OF_ASC_NODE":179.0419,"ARG_OF_PERICENTER":83.4945,"MEAN_ANOMALY":276.6225,"EPHEMERIS_TYPE":0,"CLASSIFICATION_TYPE":"U","NORAD_CAT_ID":60927,"ELEMENT_SET_NO":999,"REV_AT_EPOCH":5916,"BSTAR":-5.812708e-6,"MEAN_MOTION_DOT":-1.293e-5,"MEAN_MOTION_DDOT":0},{"OBJECT_NAME":"STARLINK-11238 [DTC]","OBJECT_ID":"2024-155E","EPOCH":"2025-09-04T02:01:52.657536","MEAN_MOTION":15.6968888,"ECCENTRICITY":0.00011449,"INCLINATION":53.16,"RA_OF_ASC_NODE":181.1717,"ARG_OF_PERICENTER":98.7508,"MEAN_ANOMALY":261.3639,"EPHEMERIS_TYPE":0,"CLASSIFICATION_TYPE":"U","NORAD_CAT_ID":60928,"ELEMENT_SET_NO":999,"REV_AT_EPOCH":5914,"BSTAR":-2.8012627e-5,"MEAN_MOTION_DOT":-3.978e-5,"MEAN_MOTION_DDOT":0},{"OBJECT_NAME":"STARLINK-11240 [DTC]","OBJECT_ID":"2024-155F","EPOCH":"2025-09-04T04:58:10.852320","MEAN_MOTION":15.69685466,"ECCENTRICITY":0.00012845,"INCLINATION":53.1595,"RA_OF_ASC_NODE":180.5082,"ARG_OF_PERICENTER":115.2452,"MEAN_ANOMALY":244.8699,"EPHEMERIS_TYPE":0,"CLASSIFICATION_TYPE":"U","NORAD_CAT_ID":60929,"ELEMENT_SET_NO":999,"REV_AT_EPOCH":5911,"BSTAR":-1.5707721e-5,"MEAN_MOTION_DOT":-2.489e-5,"MEAN_MOTION_DDOT":0}]
