STARLINK-11248 [DTC]    
1 60914U 24154M   25247.50335048 -.00003225  00000+0 -21763-4 0  9990
2 60914  53.1585 328.9516 0001017  85.3955 274.7179 15.69722187 59264
STARLINK-11271 [DTC]    
1 60915U 24154N   25247.49843634  .00000145  00000+0  60567-5 0  9996
2 60915  53.1589 328.9181 0001192  96.5764 263.5389 15.69718509 59265
STARLINK-32371          
1 60916U 24154P   25247.73019944  .00000565  00000+0  31190-4 0  9998
2 60916  53.1619  67.6118 0001142 109.1073 251.0052 15.30203039 57864
STARLINK-32369          
1 60917U 24154Q   25247.77652770  .00002237  00000+0  87693-4 0  9990
2 60917  53.1612  67.1946 0002109 131.6428 228.4754 15.30184040 57878
STARLINK-32317          
1 60918U 24154R   25247.82084731  .00005343  00000+0  19260-3 0  9998
2 60918  53.1614  67.4671 0001914 140.2018 219.9124 15.30164883 57872
STARLINK-32367          
1 60919U 24154S   25247.76491746 -.00001441  00000+0 -36553-4 0  9992
2 60919  53.1611  67.1172 0001141 104.7691 255.3436 15.30193609 57875
STARLINK-32345          
1 60920U 24154T   25247.82188274  .00001968  00000+0  78526-4 0  9998
2 60920  53.1601  67.4729 0001210  95.6620 264.4519 15.30207023 57884
STARLINK-32356          
1 60921U 24154U   25247.78602610 -.00000043  00000+0  10673-4 0  9992
2 60921  53.1614  67.2471 0001098  85.0150 275.0976 15.30191710 57886
STARLINK-32274          
1 60922U 24154V   25247.80291083 -.00001733  00000+0 -46404-4 0  9993
2 60922  53.1594  67.3509 0000813  18.2399 341.8631 15.30205449 57889
STARLINK-32373          
1 60923U 24154W   25247.81240252 -.00000733  00000+0 -12633-4 0  9993
2 60923  53.1610  67.4099 0001371 133.0402 227.0714 15.30196776 57884
STARLINK-11239 [DTC]    
1 60924U 24155A   25247.11406574 -.00003411  00000+0 -23324-4 0  9994
2 60924  53.1593 181.3683 0001271 111.0944 249.0210 15.69693972 59098
STARLINK-11245 [DTC]    
1 60925U 24155B   25247.54502042 -.00001001  00000+0 -34054-5 0  9995
2 60925  53.1595 179.0734 0001071  90.9596 269.1545 15.69719915 59166
STARLINK-11244 [DTC]    
1 60926U 24155C   25247.53520161 -.00000362  00000+0  18682-5 0  9994
2 60926  53.1601 179.0067 0001050  90.7853 269.3285 15.69716530 59214
STARLINK-11243 [DTC]    
1 60927U 24155D   25247.54012142 -.00001293  00000+0 -58127-5 0  9994
2 60927  53.1605 179.0419 0001336  83.4945 276.6225 15.69706849 59169
STARLINK-11238 [DTC]    
1 60928U 24155E   25247.08463724 -.00003978  00000+0 -28013-4 0  9992
2 60928  53.1600 181.1717 0001144  98.7508 261.3639 15.69688880 59143
STARLINK-11240 [DTC]    
1 60929U 24155F   25247.20707005 -.00002489  00000+0 -15708-4 0  9993
2 60929  53.1595 180.5082 0001284 115.2452 244.8699 15.69685466 59119
